0 METEOR 1-11
1 05917U 72022A   13282.50162508  .00000138  00000-0  72615-4 0  8264
2 05917 081.2293 116.3708 0031533 086.6459 324.5370 14.08474880132327
0 METEOR 1-11
1 05917U 72022A   13283.70878966  .00000142  00000-0  75263-4 0  8277
2 05917 081.2292 115.1970 0031451 083.2932 325.4245 14.08475162132495
0 METEOR 1-11
1 05917U 72022A   13286.14152068  .00000116  00000-0  59811-4 0  8290
2 05917 081.2291 112.8315 0031298 076.4980 060.5452 14.08475807132838
0 METEOR 1-11
1 05917U 72022A   13287.47619736  .00000117  00000-0  60510-4 0  8308
2 05917 081.2292 111.5337 0031211 072.7567 348.0162 14.08476280133024
0 METEOR 1-11
1 05917U 72022A   13288.61344769  .00000125  00000-0  65364-4 0  8318
2 05917 081.2293 110.4278 0031136 069.5468 354.4622 14.08476749133186
0 METEOR 1-11
1 05917U 72022A   13290.11965698  .00000116  00000-0  59763-4 0  8323
2 05917 081.2295 108.9632 0031035 065.3152 071.7033 14.08477136133395
0 METEOR 1-11
1 05917U 72022A   13291.52382569  .00000122  00000-0  63610-4 0  8333
2 05917 081.2298 107.5978 0030946 061.3502 351.5694 14.08477379133594
0 METEOR 1-11
1 05917U 72022A   13292.81698199  .00000153  00000-0  81454-4 0  8346
2 05917 081.2300 106.3405 0030860 057.6764 068.5696 14.08477458133778
0 METEOR 1-11
1 05917U 72022A   13294.09790470  .00000154  00000-0  82110-4 0  8355
2 05917 081.2301 105.0951 0030779 054.0274 083.5481 14.08477800133957
0 METEOR 1-11
1 05917U 72022A   13295.50196683  .00000172  00000-0  92590-4 0  8362
2 05917 081.2300 103.7299 0030664 049.9644 002.9758 14.08478163134151
